[{"OBJECT_NAME":"MAKERSAT 0","OBJECT_ID":"2017-073D","EPOCH":"2026-03-09T15:16:53.554944","MEAN_MOTION":15.27797199,"ECCENTRICITY":0.0115258,"INCLINATION":97.4777,"RA_OF_ASC_NODE":310.6155,"ARG_OF_PERICENTER":266.0743,"MEAN_ANOMALY":92.7313,"EPHEMERIS_TYPE":0,"CLASSIFICATION_TYPE":"U","NORAD_CAT_ID":43016,"ELEMENT_SET_NO":999,"REV_AT_EPOCH":45124,"BSTAR":0.0007159,"MEAN_MOTION_DOT":0.00023659,"MEAN_MOTION_DDOT":0},{"OBJECT_NAME":"STARLINK-3346","OBJECT_ID":"2022-001U","EPOCH":"2026-03-09T14:12:56.300256","MEAN_MOTION":15.08837433,"ECCENTRICITY":0.0001325,"INCLINATION":53.2177,"RA_OF_ASC_NODE":169.4427,"ARG_OF_PERICENTER":91.928,"MEAN_ANOMALY":268.1864,"EPHEMERIS_TYPE":0,"CLASSIFICATION_TYPE":"U","NORAD_CAT_ID":50821,"ELEMENT_SET_NO":999,"REV_AT_EPOCH":23039,"BSTAR":4.058e-5,"MEAN_MOTION_DOT":3.58e-6,"MEAN_MOTION_DDOT":0}]
